HAWK-7A                 
1 56191U 23054P   26068.68910991  .00007758  00000+0  30248-3 0  9997
2 56191  97.2827 318.5579 0004249  51.2619 308.8999 15.26207271161849
STARLINK-30396          
1 57964U 23151A   26068.17083723 -.00002389  00000+0 -79426-4 0  9991
2 57964  43.0003 339.2340 0001586 268.3218  91.7451 15.26736531135686
